{
  "norad_id": 48793,
  "name": "ONEWEB-0226",
  "history": [
    {
      "epoch": "2026-04-13T04:10:11.949888Z",
      "apogee_km": 1203.3370094062966,
      "perigee_km": 1200.2042335863325,
      "latitude_deg": 1.6015565894652937e-05,
      "longitude_deg": 8.244984974410619,
      "height_km": 1204.8243626818503,
      "semi_major_axis_km": 7579.907621496314,
      "eccentricity": 0.00020665,
      "inclination_deg": 87.8935,
      "raan_deg": 272.1631,
      "arg_perigee_deg": 95.9315,
      "mean_anomaly_deg": 264.2051,
      "mean_motion_rev_day": 13.15548588
    },
    {
      "epoch": "2026-04-14T20:19:41.906784Z",
      "apogee_km": 1203.3356588708702,
      "perigee_km": 1200.208188448968,
      "latitude_deg": 4.7265182224128204e-05,
      "longitude_deg": 123.88652382756017,
      "height_km": 1204.81958630382,
      "semi_major_axis_km": 7579.908923659918,
      "eccentricity": 0.0002063,
      "inclination_deg": 87.8938,
      "raan_deg": 271.8287,
      "arg_perigee_deg": 95.7177,
      "mean_anomaly_deg": 264.4189,
      "mean_motion_rev_day": 13.15548249
    },
    {
      "epoch": "2026-04-15T20:03:29.497248Z",
      "apogee_km": 1203.3552036646852,
      "perigee_km": 1200.1852864548018,
      "latitude_deg": 1.834969425108086e-05,
      "longitude_deg": 126.76607927499788,
      "height_km": 1204.8135061566984,
      "semi_major_axis_km": 7579.907245059743,
      "eccentricity": 0.0002091,
      "inclination_deg": 87.8936,
      "raan_deg": 271.6311,
      "arg_perigee_deg": 95.4828,
      "mean_anomaly_deg": 264.6541,
      "mean_motion_rev_day": 13.15548686
    },
    {
      "epoch": "2026-04-16T17:57:45.775872Z",
      "apogee_km": 1203.3768758033775,
      "perigee_km": 1200.1660265834516,
      "latitude_deg": 8.057447473606784e-06,
      "longitude_deg": 157.11616629569454,
      "height_km": 1204.8150551379317,
      "semi_major_axis_km": 7579.908451193414,
      "eccentricity": 0.0002118,
      "inclination_deg": 87.8936,
      "raan_deg": 271.4486,
      "arg_perigee_deg": 95.4267,
      "mean_anomaly_deg": 264.7105,
      "mean_motion_rev_day": 13.15548372
    },
    {
      "epoch": "2026-04-17T21:20:36.105792Z",
      "apogee_km": 1203.358775511445,
      "perigee_km": 1200.1847645130892,
      "latitude_deg": -1.389787294781244e-05,
      "longitude_deg": 105.0538757734071,
      "height_km": 1204.8143057839623,
      "semi_major_axis_km": 7579.908770012266,
      "eccentricity": 0.00020937,
      "inclination_deg": 87.8937,
      "raan_deg": 271.2205,
      "arg_perigee_deg": 95.4494,
      "mean_anomaly_deg": 264.6875,
      "mean_motion_rev_day": 13.15548289
    },
    {
      "epoch": "2026-04-18T04:38:41.470656Z",
      "apogee_km": 1203.3548459608319,
      "perigee_km": 1200.1859898656994,
      "latitude_deg": 1.990277230368533e-05,
      "longitude_deg": -4.829138012279238,
      "height_km": 1204.8090332069355,
      "semi_major_axis_km": 7579.907417913266,
      "eccentricity": 0.00020903,
      "inclination_deg": 87.8937,
      "raan_deg": 271.1597,
      "arg_perigee_deg": 95.3159,
      "mean_anomaly_deg": 264.821,
      "mean_motion_rev_day": 13.15548641
    },
    {
      "epoch": "2026-04-19T17:09:08.506656Z",
      "apogee_km": 1203.3664329795056,
      "perigee_km": 1200.1768074321217,
      "latitude_deg": 3.932392062732136e-05,
      "longitude_deg": 165.75480163256017,
      "height_km": 1204.7923457033432,
      "semi_major_axis_km": 7579.908620205813,
      "eccentricity": 0.0002104,
      "inclination_deg": 87.8942,
      "raan_deg": 270.8556,
      "arg_perigee_deg": 94.6372,
      "mean_anomaly_deg": 265.4999,
      "mean_motion_rev_day": 13.15548328
    },
    {
      "epoch": "2026-04-20T09:34:50.654496Z",
      "apogee_km": 1203.339823737334,
      "perigee_km": 1200.2017419152435,
      "latitude_deg": 1.7020308919587535e-05,
      "longitude_deg": -81.48220578748327,
      "height_km": 1204.7803221644792,
      "semi_major_axis_km": 7579.907782826288,
      "eccentricity": 0.000207,
      "inclination_deg": 87.894,
      "raan_deg": 270.7189,
      "arg_perigee_deg": 94.3016,
      "mean_anomaly_deg": 265.8351,
      "mean_motion_rev_day": 13.15548546
    },
    {
      "epoch": "2026-04-21T20:15:46.408032Z",
      "apogee_km": 1203.3455753433964,
      "perigee_km": 1200.1968814653164,
      "latitude_deg": 1.9149408859841317e-05,
      "longitude_deg": 116.57203890794275,
      "height_km": 1204.7637943507077,
      "semi_major_axis_km": 7579.908228404356,
      "eccentricity": 0.0002077,
      "inclination_deg": 87.8946,
      "raan_deg": 270.4298,
      "arg_perigee_deg": 93.6684,
      "mean_anomaly_deg": 266.4684,
      "mean_motion_rev_day": 13.1554843
    },
    {
      "epoch": "2026-04-22T16:20:31.307424Z",
      "apogee_km": 1203.348385590154,
      "perigee_km": 1200.192112211711,
      "latitude_deg": -3.825711291638464e-05,
      "longitude_deg": 174.39333302050773,
      "height_km": 1204.763175464558,
      "semi_major_axis_km": 7579.907248900932,
      "eccentricity": 0.0002082,
      "inclination_deg": 87.8949,
      "raan_deg": 270.2628,
      "arg_perigee_deg": 93.6726,
      "mean_anomaly_deg": 266.4642,
      "mean_motion_rev_day": 13.15548685
    },
    {
      "epoch": "2026-04-23T10:35:44.868192Z",
      "apogee_km": 1203.2623231860625,
      "perigee_km": 1200.3061539030305,
      "latitude_deg": -6.34453607086926e-05,
      "longitude_deg": -100.3148282279938,
      "height_km": 1204.8243354153603,
      "semi_major_axis_km": 7579.921238544546,
      "eccentricity": 0.000195,
      "inclination_deg": 87.8951,
      "raan_deg": 270.1108,
      "arg_perigee_deg": 95.7467,
      "mean_anomaly_deg": 264.3885,
      "mean_motion_rev_day": 13.15545043
    },
    {
      "epoch": "2026-04-24T19:27:09.353088Z",
      "apogee_km": 1203.4659432443596,
      "perigee_km": 1200.085302214622,
      "latitude_deg": 1.5229821793219747e-05,
      "longitude_deg": 125.2089716419357,
      "height_km": 1204.87878042464,
      "semi_major_axis_km": 7579.91262272949,
      "eccentricity": 0.000223,
      "inclination_deg": 87.8955,
      "raan_deg": 269.836,
      "arg_perigee_deg": 97.1896,
      "mean_anomaly_deg": 262.9488,
      "mean_motion_rev_day": 13.15547286
    },
    {
      "epoch": "2026-04-25T19:10:56.960832Z",
      "apogee_km": 1203.2890064947424,
      "perigee_km": 1200.254011127813,
      "latitude_deg": 6.910849042656157e-05,
      "longitude_deg": 128.08965579914934,
      "height_km": 1204.7516551982287,
      "semi_major_axis_km": 7579.908508811277,
      "eccentricity": 0.0002002,
      "inclination_deg": 87.8954,
      "raan_deg": 269.6396,
      "arg_perigee_deg": 93.3313,
      "mean_anomaly_deg": 266.8047,
      "mean_motion_rev_day": 13.15548357
    },
    {
      "epoch": "2026-04-26T22:33:47.158560Z",
      "apogee_km": 1203.3399002565257,
      "perigee_km": 1200.2012121356547,
      "latitude_deg": 8.434344882705736e-05,
      "longitude_deg": 76.02811795113125,
      "height_km": 1204.7508682795642,
      "semi_major_axis_km": 7579.90755619609,
      "eccentricity": 0.00020704,
      "inclination_deg": 87.8953,
      "raan_deg": 269.4117,
      "arg_perigee_deg": 93.2318,
      "mean_anomaly_deg": 266.905,
      "mean_motion_rev_day": 13.15548605
    },
    {
      "epoch": "2026-04-27T18:38:31.985376Z",
      "apogee_km": 1203.3527760128627,
      "perigee_km": 1200.1874068114894,
      "latitude_deg": -2.6190837198923615e-05,
      "longitude_deg": 133.84961608357037,
      "height_km": 1204.740122304371,
      "semi_major_axis_km": 7579.907091412176,
      "eccentricity": 0.0002088,
      "inclination_deg": 87.8955,
      "raan_deg": 269.2446,
      "arg_perigee_deg": 92.8324,
      "mean_anomaly_deg": 267.3045,
      "mean_motion_rev_day": 13.15548726
    },
    {
      "epoch": "2026-04-28T20:11:50.855712Z",
      "apogee_km": 1203.3361117432105,
      "perigee_km": 1200.2040941282767,
      "latitude_deg": 2.271806362781044e-05,
      "longitude_deg": 109.2587757653565,
      "height_km": 1204.7348590696386,
      "semi_major_axis_km": 7579.907102935743,
      "eccentricity": 0.0002066,
      "inclination_deg": 87.8957,
      "raan_deg": 269.0319,
      "arg_perigee_deg": 92.6682,
      "mean_anomaly_deg": 267.4685,
      "mean_motion_rev_day": 13.15548723
    },
    {
      "epoch": "2026-04-29T10:48:01.583712Z",
      "apogee_km": 1203.3273621943454,
      "perigee_km": 1200.20914077199,
      "latitude_deg": 2.353857129875392e-05,
      "longitude_deg": -110.50724705614958,
      "height_km": 1204.7276533596855,
      "semi_major_axis_km": 7579.905251483167,
      "eccentricity": 0.00020569,
      "inclination_deg": 87.896,
      "raan_deg": 268.9103,
      "arg_perigee_deg": 92.4824,
      "mean_anomaly_deg": 267.6542,
      "mean_motion_rev_day": 13.15549205
    },
    {
      "epoch": "2026-04-30T10:31:49.141344Z",
      "apogee_km": 1203.3230887114469,
      "perigee_km": 1200.215327166191,
      "latitude_deg": -2.3814854490606383e-06,
      "longitude_deg": -107.62745629302007,
      "height_km": 1204.7202704202311,
      "semi_major_axis_km": 7579.906207938819,
      "eccentricity": 0.000205,
      "inclination_deg": 87.896,
      "raan_deg": 268.7128,
      "arg_perigee_deg": 92.1825,
      "mean_anomaly_deg": 267.954,
      "mean_motion_rev_day": 13.15548956
    }
  ]
}